ONEWEB-0564             
1 55801U 23029F   24288.76219212 -.00001112  00000+0 -27673-2 0  9992
2 55801  87.9286  35.8928 0001292 107.3460 252.7814 13.20766227 80576
ONEWEB-0638             
1 55802U 23029G   24288.77621134  .00000330  00000+0  85675-3 0  9990
2 55802  87.8995  51.1387 0001678 120.1459 239.9837 13.14504543 79206
ONEWEB-0639             
1 55803U 23029H   24288.63091809  .00000084  00000+0  17866-3 0  9999
2 55803  87.9145  66.3987 0003053  95.9231 264.2250 13.19728387 78371
ONEWEB-0640             
1 55804U 23029J   24288.63347648  .00000182  00000+0  45546-3 0  9990
2 55804  87.9000  51.1611 0002247 119.0402 241.0953 13.14500388 79200
ONEWEB-0641             
1 55805U 23029K   24288.77781421 -.00000015  00000+0 -70666-4 0  9996
2 55805  87.9141  66.3485 0001957  94.6575 265.4781 13.19726302 78401
ONEWEB-0643             
1 55807U 23029M   24288.60335348 -.00000426  00000+0 -11835-2 0  9990
2 55807  87.9001  51.1456 0002470  82.7606 277.3804 13.14503680 79172
